{"type": "FeatureCollection", "features": [{"type": "Feature", "geometry": {"type": "Point", "coordinates": [10.609607726046612, 57.68374849645335]}, "properties": {"cls": "sts", "conf": 1.0, "x": 595974.5959120616, "y": 6394641.197567365, "length_m": 190.73516146121517, "scene": "S1C_IW_GRDH_1SDV_20250608T053119_20250608T053144_002687_0058C3_vv", "time": "2025-06-08 05:31:31", "synthetic": true, "is_infrastructure": false, "n_identities": 7, "mmsis": ["211453610", "219017733", "219026706", "219034465", "219355000", "220614000", "636020467"], "category": "AIS_VISIBLE", "gfw_encounter": false, "gfw_encounter_ids": null, "gfw_gap": false, "gfw_gap_ids": null, "registry_name": null, "registry_flag": null, "registry_type": "PASSENGER", "registry_length_m": null, "imo": null, "callsign": null, "attribution": "registry", "size_class": "very large", "duration_min": null, "term_duration": 0.0, "term_sanctioned": 0.0, "term_lane_deviation": 0.029441296476834355, "suspicion": 0.0}}, {"type": "Feature", "geometry": {"type": "Point", "coordinates": [10.696606665170082, 57.66277021472164]}, "properties": {"cls": "sts", "conf": 1.0, "x": 601219.812852245, "y": 6392432.685171498, "length_m": 271.04470312909524, "scene": "S1C_IW_GRDH_1SDV_20250608T053119_20250608T053144_002687_0058C3_vv", "time": "2025-06-08 05:31:31", "synthetic": true, "is_infrastructure": false, "n_identities": 6, "mmsis": ["210051000", "219004279", "219010873", "219026706", "352002074", "538007403"], "category": "AIS_VISIBLE", "gfw_encounter": false, "gfw_encounter_ids": null, "gfw_gap": false, "gfw_gap_ids": null, "registry_name": null, "registry_flag": null, "registry_type": "OTHER", "registry_length_m": null, "imo": null, "callsign": null, "attribution": "registry", "size_class": "ULCC/VLCC-scale", "duration_min": null, "term_duration": 0.0, "term_sanctioned": 0.0, "term_lane_deviation": 0.009371798616328086, "suspicion": 0.0}}, {"type": "Feature", "geometry": {"type": "Point", "coordinates": [10.664870189018409, 57.64592064388957]}, "properties": {"cls": "sts", "conf": 1.0, "x": 599372.6933938839, "y": 6390510.275517823, "length_m": 200.77385416970017, "scene": "S1C_IW_GRDH_1SDV_20250608T053119_20250608T053144_002687_0058C3_vv", "time": "2025-06-08 05:31:31", "synthetic": true, "is_infrastructure": false, "n_identities": 8, "mmsis": ["210056000", "219022300", "219026706", "245340000", "258349500", "265056000", "304204000", "311027600"], "category": "AIS_VISIBLE", "gfw_encounter": false, "gfw_encounter_ids": null, "gfw_gap": false, "gfw_gap_ids": null, "registry_name": "OCEANLIFE", "registry_flag": "CYP", "registry_type": "OTHER", "registry_length_m": null, "imo": "9254537", "callsign": "5BWX2", "attribution": "registry", "size_class": "very large", "duration_min": null, "term_duration": 0.0, "term_sanctioned": 0.0, "term_lane_deviation": 0.02845880514966448, "suspicion": 0.0}}, {"type": "Feature", "geometry": {"type": "Point", "coordinates": [10.617731485986019, 57.701682479214945]}, "properties": {"cls": "sts", "conf": 1.0, "x": 596411.2790448808, "y": 6396648.936109062, "length_m": 100.38692708485009, "scene": "S1C_IW_GRDH_1SDV_20250608T053119_20250608T053144_002687_0058C3_vv", "time": "2025-06-08 05:31:31", "synthetic": true, "is_infrastructure": false, "n_identities": 14, "mmsis": ["211451390", "219004279", "219019067", "219022257", "219022300", "219026706", "219028008", "219028071", "219031797", "219032932", "219355000", "244024000", "245413000", "305371000"], "category": "AIS_VISIBLE", "gfw_encounter": false, "gfw_encounter_ids": null, "gfw_gap": false, "gfw_gap_ids": null, "registry_name": null, "registry_flag": null, "registry_type": "PASSENGER", "registry_length_m": null, "imo": null, "callsign": null, "attribution": "registry", "size_class": "large", "duration_min": null, "term_duration": 0.0, "term_sanctioned": 0.0, "term_lane_deviation": 0.016048177126043894, "suspicion": 0.0}}]}